[{"OBJECT_NAME":"STARLINK-35553","OBJECT_ID":"2025-237G","EPOCH":"2025-12-17T05:37:09.397920","MEAN_MOTION":15.39659534,"ECCENTRICITY":0.00013174,"INCLINATION":53.1613,"RA_OF_ASC_NODE":66.3539,"ARG_OF_PERICENTER":107.4017,"MEAN_ANOMALY":252.7132,"EPHEMERIS_TYPE":0,"CLASSIFICATION_TYPE":"U","NORAD_CAT_ID":66120,"ELEMENT_SET_NO":999,"REV_AT_EPOCH":993,"BSTAR":0.0012260289,"MEAN_MOTION_DOT":0.0004902,"MEAN_MOTION_DDOT":0},{"OBJECT_NAME":"STARLINK-35631","OBJECT_ID":"2025-237H","EPOCH":"2025-12-17T05:10:24.719232","MEAN_MOTION":15.39661127,"ECCENTRICITY":0.00024486,"INCLINATION":53.1608,"RA_OF_ASC_NODE":66.2367,"ARG_OF_PERICENTER":84.1812,"MEAN_ANOMALY":275.9472,"EPHEMERIS_TYPE":0,"CLASSIFICATION_TYPE":"U","NORAD_CAT_ID":66121,"ELEMENT_SET_NO":999,"REV_AT_EPOCH":993,"BSTAR":0.0011928961,"MEAN_MOTION_DOT":0.00047681,"MEAN_MOTION_DDOT":0},{"OBJECT_NAME":"STARLINK-35653","OBJECT_ID":"2025-237J","EPOCH":"2025-12-16T13:28:57.398016","MEAN_MOTION":15.39627552,"ECCENTRICITY":0.00012008,"INCLINATION":53.1601,"RA_OF_ASC_NODE":69.2663,"ARG_OF_PERICENTER":82.0376,"MEAN_ANOMALY":278.0765,"EPHEMERIS_TYPE":0,"CLASSIFICATION_TYPE":"U","NORAD_CAT_ID":66122,"ELEMENT_SET_NO":999,"REV_AT_EPOCH":983,"BSTAR":0.00083857205,"MEAN_MOTION_DOT":0.00033297,"MEAN_MOTION_DDOT":0},{"OBJECT_NAME":"STARLINK-35628","OBJECT_ID":"2025-237K","EPOCH":"2025-12-17T04:50:20.941728","MEAN_MOTION":15.39650906,"ECCENTRICITY":0.00011,"INCLINATION":53.1614,"RA_OF_ASC_NODE":66.1491,"ARG_OF_PERICENTER":101.677,"MEAN_ANOMALY":258.4359,"EPHEMERIS_TYPE":0,"CLASSIFICATION_TYPE":"U","NORAD_CAT_ID":66123,"ELEMENT_SET_NO":999,"REV_AT_EPOCH":993,"BSTAR":0.00080700301,"MEAN_MOTION_DOT":0.00032048,"MEAN_MOTION_DDOT":0},{"OBJECT_NAME":"STARLINK-35645","OBJECT_ID":"2025-237L","EPOCH":"2025-12-17T04:57:02.422656","MEAN_MOTION":15.39664493,"ECCENTRICITY":0.00025917,"INCLINATION":53.161,"RA_OF_ASC_NODE":66.1791,"ARG_OF_PERICENTER":86.3024,"MEAN_ANOMALY":273.8278,"EPHEMERIS_TYPE":0,"CLASSIFICATION_TYPE":"U","NORAD_CAT_ID":66124,"ELEMENT_SET_NO":999,"REV_AT_EPOCH":993,"BSTAR":0.0012267499,"MEAN_MOTION_DOT":0.0004906,"MEAN_MOTION_DDOT":0},{"OBJECT_NAME":"STARLINK-35649","OBJECT_ID":"2025-237M","EPOCH":"2025-12-16T22:23:04.378848","MEAN_MOTION":15.39664044,"ECCENTRICITY":0.00014084,"INCLINATION":53.1625,"RA_OF_ASC_NODE":67.3144,"ARG_OF_PERICENTER":83.8726,"MEAN_ANOMALY":276.2439,"EPHEMERIS_TYPE":0,"CLASSIFICATION_TYPE":"U","NORAD_CAT_ID":66125,"ELEMENT_SET_NO":999,"REV_AT_EPOCH":989,"BSTAR":0.0010815503,"MEAN_MOTION_DOT":0.0004317,"MEAN_MOTION_DDOT":0},{"OBJECT_NAME":"STARLINK-35658","OBJECT_ID":"2025-237N","EPOCH":"2025-12-17T08:00:04.999680","MEAN_MOTION":15.39620942,"ECCENTRICITY":0.00012577,"INCLINATION":53.1601,"RA_OF_ASC_NODE":65.4763,"ARG_OF_PERICENTER":101.6676,"MEAN_ANOMALY":294.8791,"EPHEMERIS_TYPE":0,"CLASSIFICATION_TYPE":"U","NORAD_CAT_ID":66126,"ELEMENT_SET_NO":999,"REV_AT_EPOCH":586,"BSTAR":-0.00014871925,"MEAN_MOTION_DOT":-6.343e-5,"MEAN_MOTION_DDOT":0},{"OBJECT_NAME":"STARLINK-35629","OBJECT_ID":"2025-237P","EPOCH":"2025-12-17T08:00:04.999680","MEAN_MOTION":15.3961791,"ECCENTRICITY":0.0001398,"INCLINATION":53.1603,"RA_OF_ASC_NODE":65.377,"ARG_OF_PERICENTER":87.4257,"MEAN_ANOMALY":0.6324,"EPHEMERIS_TYPE":0,"CLASSIFICATION_TYPE":"U","NORAD_CAT_ID":66127,"ELEMENT_SET_NO":999,"REV_AT_EPOCH":586,"BSTAR":-0.00010404318,"MEAN_MOTION_DOT":-4.558e-5,"MEAN_MOTION_DDOT":0},{"OBJECT_NAME":"STARLINK-35612","OBJECT_ID":"2025-237Q","EPOCH":"2025-12-17T05:51:00.784512","MEAN_MOTION":15.39644552,"ECCENTRICITY":0.00014138,"INCLINATION":53.1609,"RA_OF_ASC_NODE":66.4152,"ARG_OF_PERICENTER":99.9598,"MEAN_ANOMALY":260.1566,"EPHEMERIS_TYPE":0,"CLASSIFICATION_TYPE":"U","NORAD_CAT_ID":66128,"ELEMENT_SET_NO":999,"REV_AT_EPOCH":993,"BSTAR":0.00085392861,"MEAN_MOTION_DOT":0.00033936,"MEAN_MOTION_DDOT":0},{"OBJECT_NAME":"STARLINK-35632","OBJECT_ID":"2025-237R","EPOCH":"2025-12-17T08:00:04.999680","MEAN_MOTION":15.39604133,"ECCENTRICITY":0.00011078,"INCLINATION":53.1599,"RA_OF_ASC_NODE":65.9401,"ARG_OF_PERICENTER":81.1401,"MEAN_ANOMALY":81.7873,"EPHEMERIS_TYPE":0,"CLASSIFICATION_TYPE":"U","NORAD_CAT_ID":66129,"ELEMENT_SET_NO":999,"REV_AT_EPOCH":590,"BSTAR":0.00020657915,"MEAN_MOTION_DOT":7.868e-5,"MEAN_MOTION_DDOT":0},{"OBJECT_NAME":"STARLINK-35637","OBJECT_ID":"2025-237S","EPOCH":"2025-12-17T05:37:38.503488","MEAN_MOTION":15.39658633,"ECCENTRICITY":0.00012446,"INCLINATION":53.1603,"RA_OF_ASC_NODE":66.3549,"ARG_OF_PERICENTER":91.1244,"MEAN_ANOMALY":268.9904,"EPHEMERIS_TYPE":0,"CLASSIFICATION_TYPE":"U","NORAD_CAT_ID":66130,"ELEMENT_SET_NO":999,"REV_AT_EPOCH":993,"BSTAR":0.0012716625,"MEAN_MOTION_DOT":0.00050871,"MEAN_MOTION_DDOT":0},{"OBJECT_NAME":"STARLINK-35630","OBJECT_ID":"2025-237T","EPOCH":"2025-12-17T03:56:59.581536","MEAN_MOTION":15.40834111,"ECCENTRICITY":0.00048085,"INCLINATION":53.1611,"RA_OF_ASC_NODE":66.6306,"ARG_OF_PERICENTER":226.3807,"MEAN_ANOMALY":133.68,"EPHEMERIS_TYPE":0,"CLASSIFICATION_TYPE":"U","NORAD_CAT_ID":66131,"ELEMENT_SET_NO":999,"REV_AT_EPOCH":992,"BSTAR":0.0027548382,"MEAN_MOTION_DOT":0.0011608,"MEAN_MOTION_DDOT":0},{"OBJECT_NAME":"STARLINK-34412","OBJECT_ID":"2025-237U","EPOCH":"2025-12-17T08:00:04.999680","MEAN_MOTION":15.39595272,"ECCENTRICITY":0.00013189,"INCLINATION":53.1601,"RA_OF_ASC_NODE":65.7862,"ARG_OF_PERICENTER":92.1718,"MEAN_ANOMALY":148.0198,"EPHEMERIS_TYPE":0,"CLASSIFICATION_TYPE":"U","NORAD_CAT_ID":66132,"ELEMENT_SET_NO":999,"REV_AT_EPOCH":568,"BSTAR":0.00046886985,"MEAN_MOTION_DOT":0.00018385,"MEAN_MOTION_DDOT":0},{"OBJECT_NAME":"STARLINK-35520","OBJECT_ID":"2025-237V","EPOCH":"2025-12-16T12:09:20.245248","MEAN_MOTION":15.39624837,"ECCENTRICITY":0.00010855,"INCLINATION":53.1605,"RA_OF_ASC_NODE":69.6306,"ARG_OF_PERICENTER":71.4689,"MEAN_ANOMALY":288.6434,"EPHEMERIS_TYPE":0,"CLASSIFICATION_TYPE":"U","NORAD_CAT_ID":66133,"ELEMENT_SET_NO":999,"REV_AT_EPOCH":982,"BSTAR":0.0013011343,"MEAN_MOTION_DOT":0.00052009,"MEAN_MOTION_DDOT":0},{"OBJECT_NAME":"STARLINK-35525","OBJECT_ID":"2025-237W","EPOCH":"2025-12-16T22:56:59.878176","MEAN_MOTION":15.39636721,"ECCENTRICITY":0.00012461,"INCLINATION":53.1609,"RA_OF_ASC_NODE":67.4612,"ARG_OF_PERICENTER":75.8523,"MEAN_ANOMALY":284.262,"EPHEMERIS_TYPE":0,"CLASSIFICATION_TYPE":"U","NORAD_CAT_ID":66134,"ELEMENT_SET_NO":999,"REV_AT_EPOCH":989,"BSTAR":0.0014027702,"MEAN_MOTION_DOT":0.00056155,"MEAN_MOTION_DDOT":0},{"OBJECT_NAME":"STARLINK-34852","OBJECT_ID":"2025-237X","EPOCH":"2025-12-17T05:04:12.501984","MEAN_MOTION":15.39647191,"ECCENTRICITY":0.00017584,"INCLINATION":53.1613,"RA_OF_ASC_NODE":66.209,"ARG_OF_PERICENTER":80.9812,"MEAN_ANOMALY":279.1392,"EPHEMERIS_TYPE":0,"CLASSIFICATION_TYPE":"U","NORAD_CAT_ID":66135,"ELEMENT_SET_NO":999,"REV_AT_EPOCH":989,"BSTAR":0.0009980391,"MEAN_MOTION_DOT":0.00039766,"MEAN_MOTION_DDOT":0},{"OBJECT_NAME":"STARLINK-35592","OBJECT_ID":"2025-237Y","EPOCH":"2025-12-17T00:00:02.999808","MEAN_MOTION":15.39582319,"ECCENTRICITY":0.00011715,"INCLINATION":53.1604,"RA_OF_ASC_NODE":67.0992,"ARG_OF_PERICENTER":88.8979,"MEAN_ANOMALY":231.353,"EPHEMERIS_TYPE":0,"CLASSIFICATION_TYPE":"U","NORAD_CAT_ID":66136,"ELEMENT_SET_NO":999,"REV_AT_EPOCH":581,"BSTAR":0.000990964,"MEAN_MOTION_DOT":0.00039394,"MEAN_MOTION_DDOT":0},{"OBJECT_NAME":"STARLINK-35576","OBJECT_ID":"2025-237Z","EPOCH":"2025-12-16T22:23:32.984160","MEAN_MOTION":15.39648386,"ECCENTRICITY":0.00015547,"INCLINATION":53.1618,"RA_OF_ASC_NODE":67.3129,"ARG_OF_PERICENTER":77.002,"MEAN_ANOMALY":283.1159,"EPHEMERIS_TYPE":0,"CLASSIFICATION_TYPE":"U","NORAD_CAT_ID":66137,"ELEMENT_SET_NO":999,"REV_AT_EPOCH":989,"BSTAR":0.00075991243,"MEAN_MOTION_DOT":0.00030145,"MEAN_MOTION_DDOT":0},{"OBJECT_NAME":"STARLINK-35623","OBJECT_ID":"2025-237AA","EPOCH":"2025-12-17T05:57:33.584832","MEAN_MOTION":15.39646544,"ECCENTRICITY":0.00015351,"INCLINATION":53.1628,"RA_OF_ASC_NODE":65.7273,"ARG_OF_PERICENTER":112.2298,"MEAN_ANOMALY":247.887,"EPHEMERIS_TYPE":0,"CLASSIFICATION_TYPE":"U","NORAD_CAT_ID":66138,"ELEMENT_SET_NO":999,"REV_AT_EPOCH":994,"BSTAR":0.00077523491,"MEAN_MOTION_DOT":0.00030761,"MEAN_MOTION_DDOT":0},{"OBJECT_NAME":"STARLINK-35549","OBJECT_ID":"2025-237AB","EPOCH":"2025-12-17T04:44:08.854944","MEAN_MOTION":15.39637646,"ECCENTRICITY":0.00012992,"INCLINATION":53.1605,"RA_OF_ASC_NODE":66.1187,"ARG_OF_PERICENTER":83.2503,"MEAN_ANOMALY":276.865,"EPHEMERIS_TYPE":0,"CLASSIFICATION_TYPE":"U","NORAD_CAT_ID":66139,"ELEMENT_SET_NO":999,"REV_AT_EPOCH":993,"BSTAR":0.00059849101,"MEAN_MOTION_DOT":0.00023628,"MEAN_MOTION_DDOT":0},{"OBJECT_NAME":"STARLINK-35625","OBJECT_ID":"2025-237AC","EPOCH":"2025-12-17T04:57:31.327776","MEAN_MOTION":15.39624608,"ECCENTRICITY":0.00012628,"INCLINATION":53.1616,"RA_OF_ASC_NODE":66.178,"ARG_OF_PERICENTER":80.0873,"MEAN_ANOMALY":280.0274,"EPHEMERIS_TYPE":0,"CLASSIFICATION_TYPE":"U","NORAD_CAT_ID":66140,"ELEMENT_SET_NO":999,"REV_AT_EPOCH":993,"BSTAR":0.00083118733,"MEAN_MOTION_DOT":0.00032996,"MEAN_MOTION_DDOT":0},{"OBJECT_NAME":"STARLINK-35603","OBJECT_ID":"2025-237AD","EPOCH":"2025-12-17T06:04:14.700288","MEAN_MOTION":15.39663892,"ECCENTRICITY":0.00011902,"INCLINATION":53.1612,"RA_OF_ASC_NODE":65.7548,"ARG_OF_PERICENTER":98.4954,"MEAN_ANOMALY":261.6186,"EPHEMERIS_TYPE":0,"CLASSIFICATION_TYPE":"U","NORAD_CAT_ID":66141,"ELEMENT_SET_NO":999,"REV_AT_EPOCH":994,"BSTAR":0.0011111249,"MEAN_MOTION_DOT":0.00044368,"MEAN_MOTION_DDOT":0},{"OBJECT_NAME":"STARLINK-35318","OBJECT_ID":"2025-240A","EPOCH":"2025-12-16T23:47:15.835200","MEAN_MOTION":15.3020757,"ECCENTRICITY":0.00011238,"INCLINATION":53.1622,"RA_OF_ASC_NODE":87.1744,"ARG_OF_PERICENTER":63.4605,"MEAN_ANOMALY":296.6511,"EPHEMERIS_TYPE":0,"CLASSIFICATION_TYPE":"U","NORAD_CAT_ID":66146,"ELEMENT_SET_NO":999,"REV_AT_EPOCH":937,"BSTAR":0.00064704567,"MEAN_MOTION_DOT":0.00018858,"MEAN_MOTION_DDOT":0}]
